NORAD_CAT_ID,OBJECT_NAME,OBJECT_TYPE,EPOCH,MEAN_MOTION,ECCENTRICITY,INCLINATION,RA_OF_ASC_NODE,ARG_OF_PERICENTER,MEAN_ANOMALY,BSTAR,MEAN_MOTION_DOT,MEAN_MOTION_DDOT,TLE_LINE0,TLE_LINE1,TLE_LINE2,SEMIMAJOR_AXIS,PERIOD,APOGEE,PERIGEE,DECAYED
52681.0,STARLINK-4068,PAYLOAD,2024-03-28 17:20:46,15.08830024,0.0001388,53.2155,95.7726,89.0503,271.0648,0.00082902,0.00012927,0.0,0 STARLINK-4068,1 52681U 22053AB  24088.72275795  .00012927  00000-0  82902-3 0  9995,2 52681  53.2155  95.7726 0001388  89.0503 271.0648 15.08830024103807,6917.911,95.438,540.736,538.816,0.0
52681.0,STARLINK-4068,PAYLOAD,2024-03-29 09:14:37,15.08860236,0.0001353,53.2156,92.7994,94.176,265.9386,0.001173,0.0001844,0.0,0 STARLINK-4068,1 52681U 22053AB  24089.38515568  .00018440  00000-0  11730-2 0  9999,2 52681  53.2156  92.7994 0001353  94.1760 265.9386 15.08860236103513,6917.819,95.436,540.62,538.748,0.0
52681.0,STARLINK-4068,PAYLOAD,2024-03-29 17:11:32,15.08872778,0.0001381,53.2156,91.3121,84.806,275.309,0.0012602,0.00019843,0.0,0 STARLINK-4068,1 52681U 22053AB  24089.71635084  .00019843  00000-0  12602-2 0  9999,2 52681  53.2156  91.3121 0001381  84.8060 275.3090 15.08872778103959,6917.78,95.435,540.601,538.69,0.0
52681.0,STARLINK-4068,PAYLOAD,2024-03-30 04:19:14,15.08855267,0.0001841,53.2157,89.232,92.5233,267.597,0.00025597,3.79e-05,0.0,0 STARLINK-4068,1 52681U 22053AB  24090.18002949  .00003790  00000-0  25597-3 0  9992,2 52681  53.2157  89.2320 0001841  92.5233 267.5970 15.08855267103635,6917.834,95.437,540.972,538.425,0.0
52681.0,STARLINK-4068,PAYLOAD,2024-03-30 09:05:23,15.08859311,0.0001468,53.2161,88.3405,87.0198,273.0962,0.00047022,7.207e-05,0.0,0 STARLINK-4068,1 52681U 22053AB  24090.37874723  .00007207  00000-0  47022-3 0  9994,2 52681  53.2161  88.3405 0001468  87.0198 273.0962 15.08859311104052,6917.821,95.436,540.702,538.671,0.0
52681.0,STARLINK-4068,PAYLOAD,2024-03-30 23:23:51,15.08863649,0.0001553,53.2162,85.6638,83.2226,276.8943,0.00078632,0.00012256,0.0,0 STARLINK-4068,1 52681U 22053AB  24090.97490318  .00012256  00000-0  78632-3 0  9995,2 52681  53.2162  85.6638 0001553  83.2226 276.8943 15.08863649104145,6917.808,95.436,540.747,538.599,0.0
52681.0,STARLINK-4068,PAYLOAD,2024-03-31 05:45:24,15.08855635,0.0001511,53.216,84.4735,91.5147,268.6018,0.00036501,5.528e-05,0.0,0 STARLINK-4068,1 52681U 22053AB  24091.23986422  .00005528  00000-0  36501-3 0  9994,2 52681  53.2160  84.4735 0001511  91.5147 268.6018 15.08855635103794,6917.833,95.437,540.743,538.652,0.0
52681.0,STARLINK-4068,PAYLOAD,2024-03-31 08:56:10,15.08856506,0.0001497,53.2165,83.8786,95.2816,264.8347,0.00041992,6.404e-05,0.0,0 STARLINK-4068,1 52681U 22053AB  24091.37234311  .00006404  00000-0  41992-3 0  9996,2 52681  53.2165  83.8786 0001497  95.2816 264.8347 15.08856506104203,6917.83,95.437,540.731,538.659,0.0
52681.0,STARLINK-4068,PAYLOAD,2024-03-31 16:53:05,15.08854564,0.0001497,53.2167,82.3919,93.7509,266.3654,0.00022521,3.299e-05,0.0,0 STARLINK-4068,1 52681U 22053AB  24091.70354040  .00003299  00000-0  22521-3 0  9991,2 52681  53.2167  82.3919 0001497  93.7509 266.3654 15.08854564104254,6917.836,95.437,540.736,538.665,0.0
52681.0,STARLINK-4068,PAYLOAD,2024-04-01 05:36:11,15.08846973,0.0001516,53.2185,80.0125,102.7731,257.3431,0.00016026,2.264e-05,0.0,0 STARLINK-4068,1 52681U 22053AB  24092.23346193  .00002264  00000-0  16026-3 0  9994,2 52681  53.2185  80.0125 0001516 102.7731 257.3431 15.08846973103941,6917.859,95.437,540.773,538.675,0.0
52681.0,STARLINK-4068,PAYLOAD,2024-04-01 08:46:57,15.08846353,0.000164,53.2174,79.4176,101.9838,258.1338,5.0384e-05,5.14e-06,0.0,0 STARLINK-4068,1 52681U 22053AB  24092.36594121  .00000514  00000-0  50384-4 0  9996,2 52681  53.2174  79.4176 0001640 101.9838 258.1338 15.08846353104357,6917.861,95.437,540.86,538.591,0.0
52681.0,STARLINK-4068,PAYLOAD,2024-04-02 05:26:58,15.08837449,0.0001422,53.2161,75.5527,95.4763,264.6391,3.0979e-05,2.05e-06,0.0,0 STARLINK-4068,1 52681U 22053AB  24093.22706646  .00000205  00000-0  30979-4 0  9994,2 52681  53.2161  75.5527 0001422  95.4763 264.6391 15.08837449104090,6917.888,95.438,540.737,538.769,0.0
52681.0,STARLINK-4068,PAYLOAD,2024-04-02 22:56:12,15.0884056,0.0001471,53.2174,72.2821,99.2554,260.8605,9.3865e-05,1.206e-05,0.0,0 STARLINK-4068,1 52681U 22053AB  24093.95570197  .00001206  00000-0  93865-4 0  9999,2 52681  53.2174  72.2821 0001471  99.2554 260.8605 15.08840560104598,6917.879,95.438,540.761,538.726,0.0
52681.0,STARLINK-4068,PAYLOAD,2024-04-03 05:17:45,15.08831644,0.0001418,53.2177,71.0925,101.3682,258.747,0.00017991,2.576e-05,0.0,0 STARLINK-4068,1 52681U 22053AB  24094.22066702  .00002576  00000-0  17991-3 0  9998,2 52681  53.2177  71.0925 0001418 101.3682 258.7470 15.08831644104635,6917.906,95.438,540.752,538.79,0.0
52681.0,STARLINK-4068,PAYLOAD,2024-04-03 22:47:00,15.08834662,0.0001336,53.2184,67.8208,95.4065,264.7079,0.00010458,1.377e-05,0.0,0 STARLINK-4068,1 52681U 22053AB  24094.94930618  .00001377  00000-0  10458-3 0  9992,2 52681  53.2184  67.8208 0001336  95.4065 264.7079 15.08834662104744,6917.897,95.438,540.686,538.837,0.0
52681.0,STARLINK-4068,PAYLOAD,2024-04-04 05:08:32,15.08834027,0.0001317,53.2185,66.6317,94.9606,265.1536,9.1316e-05,1.165e-05,0.0,0 STARLINK-4068,1 52681U 22053AB  24095.21426799  .00001165  00000-0  91316-4 0  9991,2 52681  53.2185  66.6317 0001317  94.9606 265.1536 15.08834027104396,6917.899,95.438,540.675,538.853,0.0
52681.0,STARLINK-4068,PAYLOAD,2024-04-04 14:40:51,15.08840082,0.000128,53.2186,64.8472,92.9372,267.1767,8.1461e-05,1.009e-05,0.0,0 STARLINK-4068,1 52681U 22053AB  24095.61170458  .00001009  00000-0  81461-4 0  9990,2 52681  53.2186  64.8472 0001280  92.9372 267.1767 15.08840082104842,6917.88,95.438,540.631,538.86,0.0
52681.0,STARLINK-4068,PAYLOAD,2024-04-05 06:34:42,15.08837591,0.0001388,53.2194,61.876,101.0556,259.0593,7.4634e-05,9e-06,0.0,0 STARLINK-4068,1 52681U 22053AB  24096.27410774  .00000900  00000-0  74634-4 0  9994,2 52681  53.2194  61.8760 0001388 101.0556 259.0593 15.08837591104559,6917.888,95.438,540.713,538.793,0.0
52681.0,STARLINK-4068,PAYLOAD,2024-04-05 14:31:37,15.08849463,0.0001437,53.2203,60.3892,96.4982,263.6174,0.00010132,1.325e-05,0.0,0 STARLINK-4068,1 52681U 22053AB  24096.60529881  .00001325  00000-0  10132-3 0  9995,2 52681  53.2203  60.3892 0001437  96.4982 263.6174 15.08849463104990,6917.851,95.437,540.711,538.722,0.0
52681.0,STARLINK-4068,PAYLOAD,2024-04-06 03:14:44,15.08831761,0.0001621,53.2198,58.0105,94.7797,265.338,4.1385e-05,3.71e-06,0.0,0 STARLINK-4068,1 52681U 22053AB  24097.13523438  .00000371  00000-0  41385-4 0  9991,2 52681  53.2198  58.0105 0001621  94.7797 265.3380 15.08831761104680,6917.906,95.438,540.892,538.649,0.0
52681.0,STARLINK-4068,PAYLOAD,2024-04-06 14:22:25,15.08843743,0.0001582,53.2197,55.9279,86.1455,273.9718,8.9603e-05,1.138e-05,0.0,0 STARLINK-4068,1 52681U 22053AB  24097.59890670  .00001138  00000-0  89603-4 0  9993,2 52681  53.2197  55.9279 0001582  86.1455 273.9718 15.08843743105144,6917.869,95.437,540.828,538.64,0.0
52681.0,STARLINK-4068,PAYLOAD,2024-04-07 06:16:17,15.08839934,0.0001452,53.2191,52.9527,85.5712,274.5446,-7.2135e-08,-2.89e-06,0.0,0 STARLINK-4068,1 52681U 22053AB  24098.26131246 -.00000289  00000-0 -72135-7 0  9998,2 52681  53.2191  52.9527 0001452  85.5712 274.5446 15.08839934105249,6917.881,95.438,540.75,538.741,0.0
52681.0,STARLINK-4068,PAYLOAD,2024-04-07 20:34:45,15.08838844,0.0001535,53.2191,50.2774,87.3728,272.744,0.00014324,1.992e-05,0.0,0 STARLINK-4068,1 52681U 22053AB  24098.85746955  .00001992  00000-0  14324-3 0  9994,2 52681  53.2191  50.2774 0001535  87.3728 272.7440 15.08838844104942,6917.884,95.438,540.811,538.687,0.0
52681.0,STARLINK-4068,PAYLOAD,2024-04-08 14:03:59,15.08848389,0.0001576,53.2197,47.0063,89.4833,270.634,0.00017002,2.42e-05,0.0,0 STARLINK-4068,1 52681U 22053AB  24099.58610520  .00002420  00000-0  17002-3 0  9996,2 52681  53.2197  47.0063 0001576  89.4833 270.6340 15.08848389105445,6917.855,95.437,540.81,538.629,0.0
52681.0,STARLINK-4068,PAYLOAD,2024-04-08 20:25:32,15.08841391,0.0001404,53.2206,45.8168,93.1766,266.9387,0.00018889,2.72e-05,0.0,0 STARLINK-4068,1 52681U 22053AB  24099.85106726  .00002720  00000-0  18889-3 0  9991,2 52681  53.2206  45.8168 0001404  93.1766 266.9387 15.08841391105484,6917.876,95.437,540.712,538.77,0.0
52681.0,STARLINK-4068,PAYLOAD,2024-04-09 02:47:04,15.08842186,0.0001556,53.2205,44.627,92.4525,267.6646,0.00016273,2.303e-05,0.0,0 STARLINK-4068,1 52681U 22053AB  24100.11602793  .00002303  00000-0  16273-3 0  9990,2 52681  53.2205  44.6270 0001556  92.4525 267.6646 15.08842186105138,6917.874,95.437,540.815,538.662,0.0
52681.0,STARLINK-4068,PAYLOAD,2024-04-09 05:57:51,15.08844349,0.0001601,53.2201,44.0316,97.4399,262.6775,9.5339e-05,1.23e-05,0.0,0 STARLINK-4068,1 52681U 22053AB  24100.24850785  .00001230  00000-0  95339-4 0  9999,2 52681  53.2201  44.0316 0001601  97.4399 262.6775 15.08844349105540,6917.867,95.437,540.84,538.625,0.0
52681.0,STARLINK-4068,PAYLOAD,2024-04-09 20:16:19,15.08826685,0.0001707,53.2207,41.3549,100.6146,259.5038,0.00030783,4.613e-05,0.0,0 STARLINK-4068,1 52681U 22053AB  24100.84467327  .00004613  00000-0  30783-3 0  9990,2 52681  53.2207  41.3549 0001707 100.6146 259.5038 15.08826685105245,6917.921,95.438,540.967,538.605,0.0
52681.0,STARLINK-4068,PAYLOAD,2024-04-10 05:48:38,15.08839905,0.0001668,53.2207,39.5706,101.1904,258.9276,-3.0927e-06,-3.37e-06,0.0,0 STARLINK-4068,1 52681U 22053AB  24101.24211131 -.00000337  00000-0 -30927-5 0  9998,2 52681  53.2207  39.5706 0001668 101.1904 258.9276 15.08839905105698,6917.881,95.438,540.9,538.592,0.0
52681.0,STARLINK-4068,PAYLOAD,2024-04-10 23:17:53,15.08834618,0.0001474,53.2192,36.2998,97.7174,262.3986,6.9338e-06,-1.78e-06,0.0,0 STARLINK-4068,1 52681U 22053AB  24101.97075461 -.00000178  00000-0  69338-5 0  9992,2 52681  53.2192  36.2998 0001474  97.7174 262.3986 15.08834618105808,6917.897,95.438,540.782,538.742,0.0
